[{"OBJECT_NAME":"STPSAT-6","OBJECT_ID":"2021-118A","EPOCH":"2022-08-18T15:14:38.078880","MEAN_MOTION":1.00273018,"ECCENTRICITY":7.0e-5,"INCLINATION":0.0358,"RA_OF_ASC_NODE":280.0955,"ARG_OF_PERICENTER":285.5295,"MEAN_ANOMALY":238.3515,"EPHEMERIS_TYPE":0,"CLASSIFICATION_TYPE":"U","NORAD_CAT_ID":49817,"ELEMENT_SET_NO":999,"REV_AT_EPOCH":253,"BSTAR":0,"MEAN_MOTION_DOT":-5.3e-7,"MEAN_MOTION_DDOT":0},{"OBJECT_NAME":"LDPE-1","OBJECT_ID":"2021-118B","EPOCH":"2022-08-18T19:35:29.807808","MEAN_MOTION":1.01197147,"ECCENTRICITY":0.0002444,"INCLINATION":0.5252,"RA_OF_ASC_NODE":100.8406,"ARG_OF_PERICENTER":111.2882,"MEAN_ANOMALY":208.6894,"EPHEMERIS_TYPE":0,"CLASSIFICATION_TYPE":"U","NORAD_CAT_ID":49818,"ELEMENT_SET_NO":999,"REV_AT_EPOCH":256,"BSTAR":0,"MEAN_MOTION_DOT":3.1e-7,"MEAN_MOTION_DDOT":0},{"OBJECT_NAME":"EXPRESS AMU-7","OBJECT_ID":"2021-123A","EPOCH":"2022-08-19T06:07:01.049664","MEAN_MOTION":1.00271042,"ECCENTRICITY":5.75e-5,"INCLINATION":0.0465,"RA_OF_ASC_NODE":278.5009,"ARG_OF_PERICENTER":20.1958,"MEAN_ANOMALY":265.6223,"EPHEMERIS_TYPE":0,"CLASSIFICATION_TYPE":"U","NORAD_CAT_ID":50001,"ELEMENT_SET_NO":999,"REV_AT_EPOCH":252,"BSTAR":0,"MEAN_MOTION_DOT":-2.49e-6,"MEAN_MOTION_DDOT":0},{"OBJECT_NAME":"EXPRESS AMU-3","OBJECT_ID":"2021-123B","EPOCH":"2022-08-17T19:23:20.411232","MEAN_MOTION":1.0027273,"ECCENTRICITY":5.33e-5,"INCLINATION":0.0573,"RA_OF_ASC_NODE":269.8107,"ARG_OF_PERICENTER":103.6648,"MEAN_ANOMALY":346.5143,"EPHEMERIS_TYPE":0,"CLASSIFICATION_TYPE":"U","NORAD_CAT_ID":50002,"ELEMENT_SET_NO":999,"REV_AT_EPOCH":247,"BSTAR":0,"MEAN_MOTION_DOT":-3.31e-6,"MEAN_MOTION_DDOT":0},{"OBJECT_NAME":"TIANLIAN 2-02","OBJECT_ID":"2021-124A","EPOCH":"2022-08-18T08:56:56.247072","MEAN_MOTION":1.00273692,"ECCENTRICITY":0.0003237,"INCLINATION":2.3913,"RA_OF_ASC_NODE":281.804,"ARG_OF_PERICENTER":189.9042,"MEAN_ANOMALY":160.2446,"EPHEMERIS_TYPE":0,"CLASSIFICATION_TYPE":"U","NORAD_CAT_ID":50005,"ELEMENT_SET_NO":999,"REV_AT_EPOCH":258,"BSTAR":0,"MEAN_MOTION_DOT":-2.0e-7,"MEAN_MOTION_DDOT":0},{"OBJECT_NAME":"TURKSAT 5B","OBJECT_ID":"2021-126A","EPOCH":"2022-08-18T12:08:23.106336","MEAN_MOTION":1.00272013,"ECCENTRICITY":0.0001574,"INCLINATION":0.0741,"RA_OF_ASC_NODE":314.1318,"ARG_OF_PERICENTER":5.0008,"MEAN_ANOMALY":231.7829,"EPHEMERIS_TYPE":0,"CLASSIFICATION_TYPE":"U","NORAD_CAT_ID":50212,"ELEMENT_SET_NO":999,"REV_AT_EPOCH":226,"BSTAR":0,"MEAN_MOTION_DOT":1.39e-6,"MEAN_MOTION_DDOT":0},{"OBJECT_NAME":"SHIYAN 12 01 (SY-12 01)","OBJECT_ID":"2021-129A","EPOCH":"2022-08-18T22:16:42.729312","MEAN_MOTION":1.00272385,"ECCENTRICITY":0.0003562,"INCLINATION":0.1219,"RA_OF_ASC_NODE":157.751,"ARG_OF_PERICENTER":59.437,"MEAN_ANOMALY":100.9949,"EPHEMERIS_TYPE":0,"CLASSIFICATION_TYPE":"U","NORAD_CAT_ID":50321,"ELEMENT_SET_NO":999,"REV_AT_EPOCH":247,"BSTAR":0,"MEAN_MOTION_DOT":1.02e-6,"MEAN_MOTION_DDOT":0},{"OBJECT_NAME":"SHIYAN 12 02 (SY-12 02)","OBJECT_ID":"2021-129B","EPOCH":"2022-08-18T21:24:00.701856","MEAN_MOTION":1.00426322,"ECCENTRICITY":0.0003083,"INCLINATION":0.1214,"RA_OF_ASC_NODE":158.2526,"ARG_OF_PERICENTER":108.9456,"MEAN_ANOMALY":155.3164,"EPHEMERIS_TYPE":0,"CLASSIFICATION_TYPE":"U","NORAD_CAT_ID":50322,"ELEMENT_SET_NO":999,"REV_AT_EPOCH":247,"BSTAR":0,"MEAN_MOTION_DOT":-3.01e-6,"MEAN_MOTION_DDOT":0},{"OBJECT_NAME":"TJS-9","OBJECT_ID":"2021-135A","EPOCH":"2022-08-19T05:16:42.644928","MEAN_MOTION":1.00271515,"ECCENTRICITY":0.0002881,"INCLINATION":0.0735,"RA_OF_ASC_NODE":275.21,"ARG_OF_PERICENTER":145.6648,"MEAN_ANOMALY":123.0843,"EPHEMERIS_TYPE":0,"CLASSIFICATION_TYPE":"U","NORAD_CAT_ID":50574,"ELEMENT_SET_NO":999,"REV_AT_EPOCH":244,"BSTAR":0,"MEAN_MOTION_DOT":-3.05e-6,"MEAN_MOTION_DDOT":0},{"OBJECT_NAME":"USA 324","OBJECT_ID":"2022-006A","EPOCH":"2022-08-14T04:00:00.000288","MEAN_MOTION":1.00500957,"ECCENTRICITY":0.0001297,"INCLINATION":0.1895,"RA_OF_ASC_NODE":98.3279,"ARG_OF_PERICENTER":229.5658,"MEAN_ANOMALY":41.8257,"EPHEMERIS_TYPE":0,"CLASSIFICATION_TYPE":"U","NORAD_CAT_ID":51280,"ELEMENT_SET_NO":999,"REV_AT_EPOCH":204,"BSTAR":0,"MEAN_MOTION_DOT":-7.9e-7,"MEAN_MOTION_DDOT":0},{"OBJECT_NAME":"USA 325","OBJECT_ID":"2022-006B","EPOCH":"2022-08-15T16:11:48.336864","MEAN_MOTION":1.00155216,"ECCENTRICITY":8.97e-5,"INCLINATION":0.0934,"RA_OF_ASC_NODE":98.439,"ARG_OF_PERICENTER":303.1707,"MEAN_ANOMALY":158.5183,"EPHEMERIS_TYPE":0,"CLASSIFICATION_TYPE":"U","NORAD_CAT_ID":51281,"ELEMENT_SET_NO":999,"REV_AT_EPOCH":205,"BSTAR":0,"MEAN_MOTION_DOT":-9.3e-7,"MEAN_MOTION_DDOT":0},{"OBJECT_NAME":"GOES 18","OBJECT_ID":"2022-021A","EPOCH":"2022-08-19T05:08:19.379616","MEAN_MOTION":1.00273768,"ECCENTRICITY":0.0003038,"INCLINATION":0.0283,"RA_OF_ASC_NODE":78.3744,"ARG_OF_PERICENTER":134.7402,"MEAN_ANOMALY":54.5254,"EPHEMERIS_TYPE":0,"CLASSIFICATION_TYPE":"U","NORAD_CAT_ID":51850,"ELEMENT_SET_NO":999,"REV_AT_EPOCH":178,"BSTAR":0,"MEAN_MOTION_DOT":9.0e-7,"MEAN_MOTION_DDOT":0},{"OBJECT_NAME":"CHINASAT 6D","OBJECT_ID":"2022-038A","EPOCH":"2022-08-18T19:25:34.612896","MEAN_MOTION":1.00270803,"ECCENTRICITY":0.000237,"INCLINATION":0.0171,"RA_OF_ASC_NODE":270.996,"ARG_OF_PERICENTER":258.3168,"MEAN_ANOMALY":214.2946,"EPHEMERIS_TYPE":0,"CLASSIFICATION_TYPE":"U","NORAD_CAT_ID":52255,"ELEMENT_SET_NO":999,"REV_AT_EPOCH":142,"BSTAR":0,"MEAN_MOTION_DOT":-3.61e-6,"MEAN_MOTION_DDOT":0}]