STPSAT-6                
1 49817U 21118A   22230.63516295 -.00000053  00000+0  00000+0 0  9995
2 49817   0.0358 280.0955 0000700 285.5295 238.3515  1.00273018  2538
LDPE-1                  
1 49818U 21118B   22230.81631722  .00000031  00000+0  00000+0 0  9994
2 49818   0.5252 100.8406 0002444 111.2882 208.6894  1.01197147  2563
EXPRESS AMU-7           
1 50001U 21123A   22231.25487326 -.00000249  00000+0  00000+0 0  9996
2 50001   0.0465 278.5009 0000575  20.1958 265.6223  1.00271042  2528
EXPRESS AMU-3           
1 50002U 21123B   22229.80787513 -.00000331  00000+0  00000+0 0  9998
2 50002   0.0573 269.8107 0000533 103.6648 346.5143  1.00272730  2477
TIANLIAN 2-02           
1 50005U 21124A   22230.37287323 -.00000020  00000+0  00000+0 0  9995
2 50005   2.3913 281.8040 0003237 189.9042 160.2446  1.00273692  2589
TURKSAT 5B              
1 50212U 21126A   22230.50582299  .00000139  00000+0  00000+0 0  9992
2 50212   0.0741 314.1318 0001574   5.0008 231.7829  1.00272013  2263
SHIYAN 12 01 (SY-12 01) 
1 50321U 21129A   22230.92827233  .00000102  00000+0  00000+0 0  9992
2 50321   0.1219 157.7510 0003562  59.4370 100.9949  1.00272385  2479
SHIYAN 12 02 (SY-12 02) 
1 50322U 21129B   22230.89167479 -.00000301  00000+0  00000+0 0  9990
2 50322   0.1214 158.2526 0003083 108.9456 155.3164  1.00426322  2476
TJS-9                   
1 50574U 21135A   22231.21993802 -.00000305  00000+0  00000+0 0  9994
2 50574   0.0735 275.2100 0002881 145.6648 123.0843  1.00271515  2441
USA 324                 
1 51280U 22006A   22226.16666667 -.00000079  00000+0  00000+0 0  9999
2 51280   0.1895  98.3279 0001297 229.5658  41.8257  1.00500957  2045
USA 325                 
1 51281U 22006B   22227.67486501 -.00000093  00000+0  00000+0 0  9990
2 51281   0.0934  98.4390 0000897 303.1707 158.5183  1.00155216  2052
GOES 18                 
1 51850U 22021A   22231.21411319  .00000090  00000+0  00000+0 0  9995
2 51850   0.0283  78.3744 0003038 134.7402  54.5254  1.00273768  1787
CHINASAT 6D             
1 52255U 22038A   22230.80942839 -.00000361  00000+0  00000+0 0  9995
2 52255   0.0171 270.9960 0002370 258.3168 214.2946  1.00270803  1424
